IRIDIUM 126             
1 42809U 17039G   25013.58249220  .00000144  00000+0  44388-4 0  9995
2 42809  86.3972 210.7479 0001721  89.6637 270.4756 14.34216684395478
IRIDIUM 124             
1 42810U 17039H   25013.76442911  .00000696  00000+0  20087-3 0  9990
2 42810  86.4531 147.5201 0002476  99.6323 260.5158 14.43275711400191
IRIDIUM 128             
1 42811U 17039J   25013.71278112  .00000487  00000+0  16681-3 0  9999
2 42811  86.3951 242.1961 0002049  97.0389 263.1040 14.34220658395521
IRIDIUM 121             
1 42812U 17039K   25013.39222783  .00000158  00000+0  49389-4 0  9994
2 42812  86.3972 210.8513 0002160  90.5053 269.6391 14.34215509395327
IRIDIUM 133             
1 42955U 17061A   25013.32586427  .00000382  00000+0  12939-3 0  9997
2 42955  86.3953 242.4628 0001917  90.2725 269.8691 14.34220458380265
IRIDIUM 100             
1 42956U 17061B   25013.59859602  .00000294  00000+0  97933-4 0  9995
2 42956  86.3954 242.2795 0001962  92.6777 267.4643 14.34218182380300
IRIDIUM 122             
1 42957U 17061C   25013.56688509  .00000391  00000+0  13266-3 0  9993
2 42957  86.3951 242.2915 0001761  90.1580 269.9818 14.34220295380303
IRIDIUM 129             
1 42958U 17061D   25013.38294232  .00000317  00000+0  10605-3 0  9992
2 42958  86.3952 242.4300 0001904  74.3428 285.7978 14.34221396380293
